IRIDIUM 106             
1 41917U 17003A   24077.50141590  .00000015  00000+0 -18405-5 0  9997
2 41917  86.3917  71.9110 0002481  87.5111 272.6369 14.34217666375432
IRIDIUM 103             
1 41918U 17003B   24077.48872996  .00000050  00000+0  10964-4 0  9995
2 41918  86.3919  71.8183 0002170  98.8797 261.2644 14.34217763375454
IRIDIUM 109             
1 41919U 17003C   24077.49507438  .00000123  00000+0  36726-4 0  9998
2 41919  86.3920  71.8615 0002002  91.9492 268.1933 14.34218149375420
IRIDIUM 102             
1 41920U 17003D   24077.53312794 -.00000031  00000+0 -18138-4 0  9991
2 41920  86.3916  71.7867 0001982  88.5238 271.6185 14.34217378375512
IRIDIUM 105             
1 41921U 17003E   24077.43407605  .00000441  00000+0  15046-3 0  9994
2 41921  86.3982  40.2377 0002266  87.3595 272.7860 14.34225406377359
IRIDIUM 104             
1 41922U 17003F   24077.47604355  .00000215  00000+0  69756-4 0  9997
2 41922  86.3919  71.8406 0002082  92.5638 267.5796 14.34217376375495
IRIDIUM 114             
1 41923U 17003G   24077.48238869  .00000042  00000+0  77687-5 0  9993
2 41923  86.3919  71.8243 0002466  87.2297 272.9181 14.34217502375470
IRIDIUM 108             
1 41924U 17003H   24077.44090207  .00000297  00000+0  99160-4 0  9993
2 41924  86.3974  40.1656 0002471  85.4900 274.6578 14.34215252377321
